STARLINK-4383           
1 53473U 22099J   22241.66667824 -.01224706  00000+0 -13590-1 0  9992
2 53473  97.6560   0.4684 0001794  56.2621  13.5404 15.65594805  2885
STARLINK-4445           
1 53474U 22099K   22241.66667824 -.01207137  00000+0 -13366-1 0  9993
2 53474  97.6557   0.4674 0001841  57.7227  14.6565 15.65609134  2884
STARLINK-4389           
1 53475U 22099L   22241.66667824 -.01229001  00000+0 -13638-1 0  9990
2 53475  97.6559   0.4684 0001749  60.6099   9.8347 15.65604263  2887
STARLINK-4378           
1 53476U 22099M   22241.66667824 -.01223609  00000+0 -13586-1 0  9991
2 53476  97.6561   0.4681 0001617  69.3254 359.1937 15.65579074  2888
STARLINK-4412           
1 53477U 22099N   22241.66667824 -.01200581  00000+0 -13292-1 0  9990
2 53477  97.6559   0.4682 0001853  61.9753   9.7644 15.65596997  2887
STARLINK-4433           
1 53478U 22099P   22241.66667824 -.01229092  00000+0 -13647-1 0  9993
2 53478  97.6559   0.4683 0001723  67.2381   1.9217 15.65590124  2887
STARLINK-4436           
1 53479U 22099Q   22241.66667824 -.01206969  00000+0 -13360-1 0  9994
2 53479  97.6557   0.4679 0001870  56.9451  16.0762 15.65616207  2880
STARLINK-4442           
1 53480U 22099R   22241.66667824 -.01215407  00000+0 -13472-1 0  9997
2 53480  97.6561   0.4682 0001841  57.5250  13.5672 15.65600919  2888
