<?xml version="1.0" encoding="UTF-8"?>
<ndm xmlns:xsi="http://www.w3.org/2001/XMLSchema-instance" xsi:noNamespaceSchemaLocation="https://sanaregistry.org/r/ndmxml_unqualified/ndmxml-2.0.0-master-2.0.xsd">
<omm id="CCSDS_OMM_VERS" version="2.0">
<header><CREATION_DATE/><ORIGINATOR/></header><body><segment><metadata><OBJECT_NAME>STARLINK-4383</OBJECT_NAME><OBJECT_ID>2022-099J</OBJECT_ID><CENTER_NAME>EARTH</CENTER_NAME><REF_FRAME>TEME</REF_FRAME><TIME_SYSTEM>UTC</TIME_SYSTEM><MEAN_ELEMENT_THEORY>SGP4</MEAN_ELEMENT_THEORY></metadata><data><meanElements><EPOCH>2022-08-29T16:00:00.999936</EPOCH><MEAN_MOTION>15.65594805</MEAN_MOTION><ECCENTRICITY>.0001794</ECCENTRICITY><INCLINATION>97.6560</INCLINATION><RA_OF_ASC_NODE>0.4684</RA_OF_ASC_NODE><ARG_OF_PERICENTER>56.2621</ARG_OF_PERICENTER><MEAN_ANOMALY>13.5404</MEAN_ANOMALY></meanElements><tleParameters><EPHEMERIS_TYPE>0</EPHEMERIS_TYPE><CLASSIFICATION_TYPE>U</CLASSIFICATION_TYPE><NORAD_CAT_ID>53473</NORAD_CAT_ID><ELEMENT_SET_NO>999</ELEMENT_SET_NO><REV_AT_EPOCH>288</REV_AT_EPOCH><BSTAR>-.1359E-1</BSTAR><MEAN_MOTION_DOT>-.1224706E-1</MEAN_MOTION_DOT><MEAN_MOTION_DDOT>0</MEAN_MOTION_DDOT></tleParameters></data></segment></body></omm>
<omm id="CCSDS_OMM_VERS" version="2.0">
<header><CREATION_DATE/><ORIGINATOR/></header><body><segment><metadata><OBJECT_NAME>STARLINK-4445</OBJECT_NAME><OBJECT_ID>2022-099K</OBJECT_ID><CENTER_NAME>EARTH</CENTER_NAME><REF_FRAME>TEME</REF_FRAME><TIME_SYSTEM>UTC</TIME_SYSTEM><MEAN_ELEMENT_THEORY>SGP4</MEAN_ELEMENT_THEORY></metadata><data><meanElements><EPOCH>2022-08-29T16:00:00.999936</EPOCH><MEAN_MOTION>15.65609134</MEAN_MOTION><ECCENTRICITY>.0001841</ECCENTRICITY><INCLINATION>97.6557</INCLINATION><RA_OF_ASC_NODE>0.4674</RA_OF_ASC_NODE><ARG_OF_PERICENTER>57.7227</ARG_OF_PERICENTER><MEAN_ANOMALY>14.6565</MEAN_ANOMALY></meanElements><tleParameters><EPHEMERIS_TYPE>0</EPHEMERIS_TYPE><CLASSIFICATION_TYPE>U</CLASSIFICATION_TYPE><NORAD_CAT_ID>53474</NORAD_CAT_ID><ELEMENT_SET_NO>999</ELEMENT_SET_NO><REV_AT_EPOCH>288</REV_AT_EPOCH><BSTAR>-.13366E-1</BSTAR><MEAN_MOTION_DOT>-.1207137E-1</MEAN_MOTION_DOT><MEAN_MOTION_DDOT>0</MEAN_MOTION_DDOT></tleParameters></data></segment></body></omm>
<omm id="CCSDS_OMM_VERS" version="2.0">
<header><CREATION_DATE/><ORIGINATOR/></header><body><segment><metadata><OBJECT_NAME>STARLINK-4389</OBJECT_NAME><OBJECT_ID>2022-099L</OBJECT_ID><CENTER_NAME>EARTH</CENTER_NAME><REF_FRAME>TEME</REF_FRAME><TIME_SYSTEM>UTC</TIME_SYSTEM><MEAN_ELEMENT_THEORY>SGP4</MEAN_ELEMENT_THEORY></metadata><data><meanElements><EPOCH>2022-08-29T16:00:00.999936</EPOCH><MEAN_MOTION>15.65604263</MEAN_MOTION><ECCENTRICITY>.0001749</ECCENTRICITY><INCLINATION>97.6559</INCLINATION><RA_OF_ASC_NODE>0.4684</RA_OF_ASC_NODE><ARG_OF_PERICENTER>60.6099</ARG_OF_PERICENTER><MEAN_ANOMALY>9.8347</MEAN_ANOMALY></meanElements><tleParameters><EPHEMERIS_TYPE>0</EPHEMERIS_TYPE><CLASSIFICATION_TYPE>U</CLASSIFICATION_TYPE><NORAD_CAT_ID>53475</NORAD_CAT_ID><ELEMENT_SET_NO>999</ELEMENT_SET_NO><REV_AT_EPOCH>288</REV_AT_EPOCH><BSTAR>-.13638E-1</BSTAR><MEAN_MOTION_DOT>-.1229001E-1</MEAN_MOTION_DOT><MEAN_MOTION_DDOT>0</MEAN_MOTION_DDOT></tleParameters></data></segment></body></omm>
<omm id="CCSDS_OMM_VERS" version="2.0">
<header><CREATION_DATE/><ORIGINATOR/></header><body><segment><metadata><OBJECT_NAME>STARLINK-4378</OBJECT_NAME><OBJECT_ID>2022-099M</OBJECT_ID><CENTER_NAME>EARTH</CENTER_NAME><REF_FRAME>TEME</REF_FRAME><TIME_SYSTEM>UTC</TIME_SYSTEM><MEAN_ELEMENT_THEORY>SGP4</MEAN_ELEMENT_THEORY></metadata><data><meanElements><EPOCH>2022-08-29T16:00:00.999936</EPOCH><MEAN_MOTION>15.65579074</MEAN_MOTION><ECCENTRICITY>.0001617</ECCENTRICITY><INCLINATION>97.6561</INCLINATION><RA_OF_ASC_NODE>0.4681</RA_OF_ASC_NODE><ARG_OF_PERICENTER>69.3254</ARG_OF_PERICENTER><MEAN_ANOMALY>359.1937</MEAN_ANOMALY></meanElements><tleParameters><EPHEMERIS_TYPE>0</EPHEMERIS_TYPE><CLASSIFICATION_TYPE>U</CLASSIFICATION_TYPE><NORAD_CAT_ID>53476</NORAD_CAT_ID><ELEMENT_SET_NO>999</ELEMENT_SET_NO><REV_AT_EPOCH>288</REV_AT_EPOCH><BSTAR>-.13586E-1</BSTAR><MEAN_MOTION_DOT>-.1223609E-1</MEAN_MOTION_DOT><MEAN_MOTION_DDOT>0</MEAN_MOTION_DDOT></tleParameters></data></segment></body></omm>
<omm id="CCSDS_OMM_VERS" version="2.0">
<header><CREATION_DATE/><ORIGINATOR/></header><body><segment><metadata><OBJECT_NAME>STARLINK-4412</OBJECT_NAME><OBJECT_ID>2022-099N</OBJECT_ID><CENTER_NAME>EARTH</CENTER_NAME><REF_FRAME>TEME</REF_FRAME><TIME_SYSTEM>UTC</TIME_SYSTEM><MEAN_ELEMENT_THEORY>SGP4</MEAN_ELEMENT_THEORY></metadata><data><meanElements><EPOCH>2022-08-29T16:00:00.999936</EPOCH><MEAN_MOTION>15.65596997</MEAN_MOTION><ECCENTRICITY>.0001853</ECCENTRICITY><INCLINATION>97.6559</INCLINATION><RA_OF_ASC_NODE>0.4682</RA_OF_ASC_NODE><ARG_OF_PERICENTER>61.9753</ARG_OF_PERICENTER><MEAN_ANOMALY>9.7644</MEAN_ANOMALY></meanElements><tleParameters><EPHEMERIS_TYPE>0</EPHEMERIS_TYPE><CLASSIFICATION_TYPE>U</CLASSIFICATION_TYPE><NORAD_CAT_ID>53477</NORAD_CAT_ID><ELEMENT_SET_NO>999</ELEMENT_SET_NO><REV_AT_EPOCH>288</REV_AT_EPOCH><BSTAR>-.13292E-1</BSTAR><MEAN_MOTION_DOT>-.1200581E-1</MEAN_MOTION_DOT><MEAN_MOTION_DDOT>0</MEAN_MOTION_DDOT></tleParameters></data></segment></body></omm>
<omm id="CCSDS_OMM_VERS" version="2.0">
<header><CREATION_DATE/><ORIGINATOR/></header><body><segment><metadata><OBJECT_NAME>STARLINK-4433</OBJECT_NAME><OBJECT_ID>2022-099P</OBJECT_ID><CENTER_NAME>EARTH</CENTER_NAME><REF_FRAME>TEME</REF_FRAME><TIME_SYSTEM>UTC</TIME_SYSTEM><MEAN_ELEMENT_THEORY>SGP4</MEAN_ELEMENT_THEORY></metadata><data><meanElements><EPOCH>2022-08-29T16:00:00.999936</EPOCH><MEAN_MOTION>15.65590124</MEAN_MOTION><ECCENTRICITY>.0001723</ECCENTRICITY><INCLINATION>97.6559</INCLINATION><RA_OF_ASC_NODE>0.4683</RA_OF_ASC_NODE><ARG_OF_PERICENTER>67.2381</ARG_OF_PERICENTER><MEAN_ANOMALY>1.9217</MEAN_ANOMALY></meanElements><tleParameters><EPHEMERIS_TYPE>0</EPHEMERIS_TYPE><CLASSIFICATION_TYPE>U</CLASSIFICATION_TYPE><NORAD_CAT_ID>53478</NORAD_CAT_ID><ELEMENT_SET_NO>999</ELEMENT_SET_NO><REV_AT_EPOCH>288</REV_AT_EPOCH><BSTAR>-.13647E-1</BSTAR><MEAN_MOTION_DOT>-.1229092E-1</MEAN_MOTION_DOT><MEAN_MOTION_DDOT>0</MEAN_MOTION_DDOT></tleParameters></data></segment></body></omm>
<omm id="CCSDS_OMM_VERS" version="2.0">
<header><CREATION_DATE/><ORIGINATOR/></header><body><segment><metadata><OBJECT_NAME>STARLINK-4436</OBJECT_NAME><OBJECT_ID>2022-099Q</OBJECT_ID><CENTER_NAME>EARTH</CENTER_NAME><REF_FRAME>TEME</REF_FRAME><TIME_SYSTEM>UTC</TIME_SYSTEM><MEAN_ELEMENT_THEORY>SGP4</MEAN_ELEMENT_THEORY></metadata><data><meanElements><EPOCH>2022-08-29T16:00:00.999936</EPOCH><MEAN_MOTION>15.65616207</MEAN_MOTION><ECCENTRICITY>.000187</ECCENTRICITY><INCLINATION>97.6557</INCLINATION><RA_OF_ASC_NODE>0.4679</RA_OF_ASC_NODE><ARG_OF_PERICENTER>56.9451</ARG_OF_PERICENTER><MEAN_ANOMALY>16.0762</MEAN_ANOMALY></meanElements><tleParameters><EPHEMERIS_TYPE>0</EPHEMERIS_TYPE><CLASSIFICATION_TYPE>U</CLASSIFICATION_TYPE><NORAD_CAT_ID>53479</NORAD_CAT_ID><ELEMENT_SET_NO>999</ELEMENT_SET_NO><REV_AT_EPOCH>288</REV_AT_EPOCH><BSTAR>-.1336E-1</BSTAR><MEAN_MOTION_DOT>-.1206969E-1</MEAN_MOTION_DOT><MEAN_MOTION_DDOT>0</MEAN_MOTION_DDOT></tleParameters></data></segment></body></omm>
<omm id="CCSDS_OMM_VERS" version="2.0">
<header><CREATION_DATE/><ORIGINATOR/></header><body><segment><metadata><OBJECT_NAME>STARLINK-4442</OBJECT_NAME><OBJECT_ID>2022-099R</OBJECT_ID><CENTER_NAME>EARTH</CENTER_NAME><REF_FRAME>TEME</REF_FRAME><TIME_SYSTEM>UTC</TIME_SYSTEM><MEAN_ELEMENT_THEORY>SGP4</MEAN_ELEMENT_THEORY></metadata><data><meanElements><EPOCH>2022-08-29T16:00:00.999936</EPOCH><MEAN_MOTION>15.65600919</MEAN_MOTION><ECCENTRICITY>.0001841</ECCENTRICITY><INCLINATION>97.6561</INCLINATION><RA_OF_ASC_NODE>0.4682</RA_OF_ASC_NODE><ARG_OF_PERICENTER>57.5250</ARG_OF_PERICENTER><MEAN_ANOMALY>13.5672</MEAN_ANOMALY></meanElements><tleParameters><EPHEMERIS_TYPE>0</EPHEMERIS_TYPE><CLASSIFICATION_TYPE>U</CLASSIFICATION_TYPE><NORAD_CAT_ID>53480</NORAD_CAT_ID><ELEMENT_SET_NO>999</ELEMENT_SET_NO><REV_AT_EPOCH>288</REV_AT_EPOCH><BSTAR>-.13472E-1</BSTAR><MEAN_MOTION_DOT>-.1215407E-1</MEAN_MOTION_DOT><MEAN_MOTION_DDOT>0</MEAN_MOTION_DDOT></tleParameters></data></segment></body></omm>

</ndm>
